ONEWEB-0243             
1 48774U 21045H   25278.12075031 -.00000148  00000+0 -42849-3 0  9999
2 48774  87.8997 310.1255 0001532 102.7333 257.3969 13.15546843210821
ONEWEB-0222             
1 48775U 21045J   25278.10412451 -.00000014  00000+0 -70352-4 0  9992
2 48775  87.9001 310.0810 0001840 100.1235 260.0103 13.15548241210869
ONEWEB-0244             
1 48776U 21045K   25278.13024970 -.00000025  00000+0 -10123-3 0  9992
2 48776  87.9001 310.0594 0001766  98.6249 261.5082 13.15547096211435
ONEWEB-0247             
1 48777U 21045L   25278.12709032 -.00000054  00000+0 -17751-3 0  9997
2 48777  87.8988 310.1261 0001213 124.3756 235.7489 13.15547634210877
ONEWEB-0245             
1 48778U 21045M   25278.12234457 -.00000112  00000+0 -33204-3 0  9998
2 48778  87.8992 310.0907 0001947 100.9821 259.1529 13.15547889210840
ONEWEB-0229             
1 48779U 21045N   25278.11758529 -.00000246  00000+0 -68703-3 0  9999
2 48779  87.8991 310.0912 0001722  95.3662 264.7665 13.15547043210875
ONEWEB-0228             
1 48780U 21045P   25278.15100231  .00000021  00000+0  21083-4 0  9996
2 48780  87.8996 310.0621 0001824  98.0430 262.0907 13.15546291210790
ONEWEB-0232             
1 48781U 21045Q   25278.12551718 -.00000055  00000+0 -17945-3 0  9994
2 48781  87.8994 310.0585 0001817  95.7177 264.4161 13.15547922211119
ONEWEB-0231             
1 48782U 21045R   25278.17938862 -.00000071  00000+0 -22296-3 0  9992
2 48782  87.8989 310.0981 0001616 102.1111 258.0200 13.15546895210819
ONEWEB-0234             
1 48783U 21045S   25278.14122051  .00000109  00000+0  25568-3 0  9990
2 48783  87.8991 310.0763 0002771  97.3937 262.7508 13.15547939210942
ONEWEB-0238             
1 48784U 21045T   25278.14148807  .00000033  00000+0  52289-4 0  9995
2 48784  87.8989 310.0715 0002281  95.3323 264.8068 13.15546608210845
ONEWEB-0240             
1 48785U 21045U   25278.16273384  .00000184  00000+0  45474-3 0  9991
2 48785  87.8998 310.0536 0001936 106.0065 254.1279 13.15552131210873
ONEWEB-0246             
1 48786U 21045V   25278.15719363  .00000129  00000+0  30905-3 0  9995
2 48786  87.8999 310.0678 0001696  95.4704 264.6619 13.15546630210743
ONEWEB-0210             
1 48787U 21045W   25278.05578587 -.00000002  00000+0 -39068-4 0  9998
2 48787  87.8997 310.0870 0001222 104.8452 255.2814 13.15547177210779
ONEWEB-0214             
1 48788U 21045X   25278.14054409  .00000030  00000+0  46284-4 0  9998
2 48788  87.8996 310.0574 0001404  93.7432 266.3858 13.15549820210752
ONEWEB-0221             
1 48789U 21045Y   25278.07164420 -.00000654  00000+0 -17717-2 0  9997
2 48789  87.8986 310.0951 0001768 101.8542 258.2787 13.15540848210838
ONEWEB-0213             
1 48790U 21045Z   25278.13659219  .00000007  00000+0 -15957-4 0  9998
2 48790  87.8988 310.0910 0001684 101.2682 258.8638 13.15546510210904
