[{"OBJECT_NAME":"ONEWEB-0243","OBJECT_ID":"2021-045H","EPOCH":"2025-10-05T02:53:52.826784","MEAN_MOTION":13.15546843,"ECCENTRICITY":0.0001532,"INCLINATION":87.8997,"RA_OF_ASC_NODE":310.1255,"ARG_OF_PERICENTER":102.7333,"MEAN_ANOMALY":257.3969,"EPHEMERIS_TYPE":0,"CLASSIFICATION_TYPE":"U","NORAD_CAT_ID":48774,"ELEMENT_SET_NO":999,"REV_AT_EPOCH":21082,"BSTAR":-0.00042849,"MEAN_MOTION_DOT":-1.48e-6,"MEAN_MOTION_DDOT":0},{"OBJECT_NAME":"ONEWEB-0222","OBJECT_ID":"2021-045J","EPOCH":"2025-10-05T02:29:56.357664","MEAN_MOTION":13.15548241,"ECCENTRICITY":0.000184,"INCLINATION":87.9001,"RA_OF_ASC_NODE":310.081,"ARG_OF_PERICENTER":100.1235,"MEAN_ANOMALY":260.0103,"EPHEMERIS_TYPE":0,"CLASSIFICATION_TYPE":"U","NORAD_CAT_ID":48775,"ELEMENT_SET_NO":999,"REV_AT_EPOCH":21086,"BSTAR":-7.0352e-5,"MEAN_MOTION_DOT":-1.4e-7,"MEAN_MOTION_DDOT":0},{"OBJECT_NAME":"ONEWEB-0244","OBJECT_ID":"2021-045K","EPOCH":"2025-10-05T03:07:33.574080","MEAN_MOTION":13.15547096,"ECCENTRICITY":0.0001766,"INCLINATION":87.9001,"RA_OF_ASC_NODE":310.0594,"ARG_OF_PERICENTER":98.6249,"MEAN_ANOMALY":261.5082,"EPHEMERIS_TYPE":0,"CLASSIFICATION_TYPE":"U","NORAD_CAT_ID":48776,"ELEMENT_SET_NO":999,"REV_AT_EPOCH":21143,"BSTAR":-0.00010123,"MEAN_MOTION_DOT":-2.5e-7,"MEAN_MOTION_DDOT":0},{"OBJECT_NAME":"ONEWEB-0247","OBJECT_ID":"2021-045L","EPOCH":"2025-10-05T03:03:00.603648","MEAN_MOTION":13.15547634,"ECCENTRICITY":0.0001213,"INCLINATION":87.8988,"RA_OF_ASC_NODE":310.1261,"ARG_OF_PERICENTER":124.3756,"MEAN_ANOMALY":235.7489,"EPHEMERIS_TYPE":0,"CLASSIFICATION_TYPE":"U","NORAD_CAT_ID":48777,"ELEMENT_SET_NO":999,"REV_AT_EPOCH":21087,"BSTAR":-0.00017751,"MEAN_MOTION_DOT":-5.4e-7,"MEAN_MOTION_DDOT":0},{"OBJECT_NAME":"ONEWEB-0245","OBJECT_ID":"2021-045M","EPOCH":"2025-10-05T02:56:10.570848","MEAN_MOTION":13.15547889,"ECCENTRICITY":0.0001947,"INCLINATION":87.8992,"RA_OF_ASC_NODE":310.0907,"ARG_OF_PERICENTER":100.9821,"MEAN_ANOMALY":259.1529,"EPHEMERIS_TYPE":0,"CLASSIFICATION_TYPE":"U","NORAD_CAT_ID":48778,"ELEMENT_SET_NO":999,"REV_AT_EPOCH":21084,"BSTAR":-0.00033204,"MEAN_MOTION_DOT":-1.12e-6,"MEAN_MOTION_DDOT":0},{"OBJECT_NAME":"ONEWEB-0229","OBJECT_ID":"2021-045N","EPOCH":"2025-10-05T02:49:19.369056","MEAN_MOTION":13.15547043,"ECCENTRICITY":0.0001722,"INCLINATION":87.8991,"RA_OF_ASC_NODE":310.0912,"ARG_OF_PERICENTER":95.3662,"MEAN_ANOMALY":264.7665,"EPHEMERIS_TYPE":0,"CLASSIFICATION_TYPE":"U","NORAD_CAT_ID":48779,"ELEMENT_SET_NO":999,"REV_AT_EPOCH":21087,"BSTAR":-0.00068703,"MEAN_MOTION_DOT":-2.46e-6,"MEAN_MOTION_DDOT":0},{"OBJECT_NAME":"ONEWEB-0228","OBJECT_ID":"2021-045P","EPOCH":"2025-10-05T03:37:26.599584","MEAN_MOTION":13.15546291,"ECCENTRICITY":0.0001824,"INCLINATION":87.8996,"RA_OF_ASC_NODE":310.0621,"ARG_OF_PERICENTER":98.043,"MEAN_ANOMALY":262.0907,"EPHEMERIS_TYPE":0,"CLASSIFICATION_TYPE":"U","NORAD_CAT_ID":48780,"ELEMENT_SET_NO":999,"REV_AT_EPOCH":21079,"BSTAR":2.1083e-5,"MEAN_MOTION_DOT":2.1e-7,"MEAN_MOTION_DDOT":0},{"OBJECT_NAME":"ONEWEB-0232","OBJECT_ID":"2021-045Q","EPOCH":"2025-10-05T03:00:44.684352","MEAN_MOTION":13.15547922,"ECCENTRICITY":0.0001817,"INCLINATION":87.8994,"RA_OF_ASC_NODE":310.0585,"ARG_OF_PERICENTER":95.7177,"MEAN_ANOMALY":264.4161,"EPHEMERIS_TYPE":0,"CLASSIFICATION_TYPE":"U","NORAD_CAT_ID":48781,"ELEMENT_SET_NO":999,"REV_AT_EPOCH":21111,"BSTAR":-0.00017945,"MEAN_MOTION_DOT":-5.5e-7,"MEAN_MOTION_DDOT":0},{"OBJECT_NAME":"ONEWEB-0231","OBJECT_ID":"2021-045R","EPOCH":"2025-10-05T04:18:19.176768","MEAN_MOTION":13.15546895,"ECCENTRICITY":0.0001616,"INCLINATION":87.8989,"RA_OF_ASC_NODE":310.0981,"ARG_OF_PERICENTER":102.1111,"MEAN_ANOMALY":258.02,"EPHEMERIS_TYPE":0,"CLASSIFICATION_TYPE":"U","NORAD_CAT_ID":48782,"ELEMENT_SET_NO":999,"REV_AT_EPOCH":21081,"BSTAR":-0.00022296,"MEAN_MOTION_DOT":-7.1e-7,"MEAN_MOTION_DDOT":0},{"OBJECT_NAME":"ONEWEB-0234","OBJECT_ID":"2021-045S","EPOCH":"2025-10-05T03:23:21.452064","MEAN_MOTION":13.15547939,"ECCENTRICITY":0.0002771,"INCLINATION":87.8991,"RA_OF_ASC_NODE":310.0763,"ARG_OF_PERICENTER":97.3937,"MEAN_ANOMALY":262.7508,"EPHEMERIS_TYPE":0,"CLASSIFICATION_TYPE":"U","NORAD_CAT_ID":48783,"ELEMENT_SET_NO":999,"REV_AT_EPOCH":21094,"BSTAR":0.00025568,"MEAN_MOTION_DOT":1.09e-6,"MEAN_MOTION_DDOT":0},{"OBJECT_NAME":"ONEWEB-0238","OBJECT_ID":"2021-045T","EPOCH":"2025-10-05T03:23:44.569248","MEAN_MOTION":13.15546608,"ECCENTRICITY":0.0002281,"INCLINATION":87.8989,"RA_OF_ASC_NODE":310.0715,"ARG_OF_PERICENTER":95.3323,"MEAN_ANOMALY":264.8068,"EPHEMERIS_TYPE":0,"CLASSIFICATION_TYPE":"U","NORAD_CAT_ID":48784,"ELEMENT_SET_NO":999,"REV_AT_EPOCH":21084,"BSTAR":5.2289e-5,"MEAN_MOTION_DOT":3.3e-7,"MEAN_MOTION_DDOT":0},{"OBJECT_NAME":"ONEWEB-0240","OBJECT_ID":"2021-045U","EPOCH":"2025-10-05T03:54:20.203776","MEAN_MOTION":13.15552131,"ECCENTRICITY":0.0001936,"INCLINATION":87.8998,"RA_OF_ASC_NODE":310.0536,"ARG_OF_PERICENTER":106.0065,"MEAN_ANOMALY":254.1279,"EPHEMERIS_TYPE":0,"CLASSIFICATION_TYPE":"U","NORAD_CAT_ID":48785,"ELEMENT_SET_NO":999,"REV_AT_EPOCH":21087,"BSTAR":0.00045474,"MEAN_MOTION_DOT":1.84e-6,"MEAN_MOTION_DDOT":0},{"OBJECT_NAME":"ONEWEB-0246","OBJECT_ID":"2021-045V","EPOCH":"2025-10-05T03:46:21.529632","MEAN_MOTION":13.1554663,"ECCENTRICITY":0.0001696,"INCLINATION":87.8999,"RA_OF_ASC_NODE":310.0678,"ARG_OF_PERICENTER":95.4704,"MEAN_ANOMALY":264.6619,"EPHEMERIS_TYPE":0,"CLASSIFICATION_TYPE":"U","NORAD_CAT_ID":48786,"ELEMENT_SET_NO":999,"REV_AT_EPOCH":21074,"BSTAR":0.00030905,"MEAN_MOTION_DOT":1.29e-6,"MEAN_MOTION_DDOT":0},{"OBJECT_NAME":"ONEWEB-0210","OBJECT_ID":"2021-045W","EPOCH":"2025-10-05T01:20:19.899168","MEAN_MOTION":13.15547177,"ECCENTRICITY":0.0001222,"INCLINATION":87.8997,"RA_OF_ASC_NODE":310.087,"ARG_OF_PERICENTER":104.8452,"MEAN_ANOMALY":255.2814,"EPHEMERIS_TYPE":0,"CLASSIFICATION_TYPE":"U","NORAD_CAT_ID":48787,"ELEMENT_SET_NO":999,"REV_AT_EPOCH":21077,"BSTAR":-3.9068e-5,"MEAN_MOTION_DOT":-2.0e-8,"MEAN_MOTION_DDOT":0},{"OBJECT_NAME":"ONEWEB-0214","OBJECT_ID":"2021-045X","EPOCH":"2025-10-05T03:22:23.009376","MEAN_MOTION":13.1554982,"ECCENTRICITY":0.0001404,"INCLINATION":87.8996,"RA_OF_ASC_NODE":310.0574,"ARG_OF_PERICENTER":93.7432,"MEAN_ANOMALY":266.3858,"EPHEMERIS_TYPE":0,"CLASSIFICATION_TYPE":"U","NORAD_CAT_ID":48788,"ELEMENT_SET_NO":999,"REV_AT_EPOCH":21075,"BSTAR":4.6284e-5,"MEAN_MOTION_DOT":3.0e-7,"MEAN_MOTION_DDOT":0},{"OBJECT_NAME":"ONEWEB-0221","OBJECT_ID":"2021-045Y","EPOCH":"2025-10-05T01:43:10.058880","MEAN_MOTION":13.15540848,"ECCENTRICITY":0.0001768,"INCLINATION":87.8986,"RA_OF_ASC_NODE":310.0951,"ARG_OF_PERICENTER":101.8542,"MEAN_ANOMALY":258.2787,"EPHEMERIS_TYPE":0,"CLASSIFICATION_TYPE":"U","NORAD_CAT_ID":48789,"ELEMENT_SET_NO":999,"REV_AT_EPOCH":21083,"BSTAR":-0.0017717,"MEAN_MOTION_DOT":-6.54e-6,"MEAN_MOTION_DDOT":0},{"OBJECT_NAME":"ONEWEB-0213","OBJECT_ID":"2021-045Z","EPOCH":"2025-10-05T03:16:41.565216","MEAN_MOTION":13.1554651,"ECCENTRICITY":0.0001684,"INCLINATION":87.8988,"RA_OF_ASC_NODE":310.091,"ARG_OF_PERICENTER":101.2682,"MEAN_ANOMALY":258.8638,"EPHEMERIS_TYPE":0,"CLASSIFICATION_TYPE":"U","NORAD_CAT_ID":48790,"ELEMENT_SET_NO":999,"REV_AT_EPOCH":21090,"BSTAR":-1.5957e-5,"MEAN_MOTION_DOT":7.0e-8,"MEAN_MOTION_DDOT":0}]
